*******************************************************************************
Ephemeris / WWW_USER Mon Mar 24 08:09:12 2025 Pasadena, USA      / Horizons    
*******************************************************************************
Target body name: (2018 VX1)                      {source: JPL#7}
Center body name: Earth (399)                     {source: DE441}
Center-site name: Mauna Kea
*******************************************************************************
Start time      : A.D. 2018-Sep-13 04:36:00.0000 UT      
Stop  time      : A.D. 2018-Sep-13 15:59:00.0000 UT      
Step-size       : 1 minutes
*******************************************************************************
Target pole/equ : undefined
Target radii    : undefined                                                    
Center geodetic : 204.5278, 19.8260847, 4.21024   {E-lon(deg),Lat(deg),Alt(km)}
Center cylindric: 204.5278, 6006.35451, 2151.0229 {E-lon(deg),Dxy(km),Dz(km)}
Center pole/equ : ITRF93                          {East-longitude positive}
Center radii    : 6378.137, 6378.137, 6356.752 km {Equator_a, b, pole_c}       
Target primary  : Sun
Vis. interferer : MOON (R_eq= 1737.400) km        {source: DE441}
Rel. light bend : Sun                             {source: DE441}
Rel. lght bnd GM: 1.3271E+11 km^3/s^2                                          
Small-body perts: Yes                             {source: SB441-N16}
Atmos refraction: NO (AIRLESS)
RA format       : HMS
Time format     : CAL 
Calendar mode   : Mixed Julian/Gregorian
RTS-only print  : NO       
EOP file        : eop.250321.p250617                                           
EOP coverage    : DATA-BASED 1962-JAN-20 TO 2025-MAR-21. PREDICTS-> 2025-JUN-16
Units conversion: 1 au= 149597870.700 km, c= 299792.458 km/s, 1 day= 86400.0 s 
Table cut-offs 1: Elevation (-90.0deg=NO ),Airmass (>38.000=NO), Daylight (YES)
Table cut-offs 2: Solar elongation (  0.0,180.0=NO ),Local Hour Angle( 0.0=NO )
Table cut-offs 3: RA/DEC angular rate (     0.0=NO )                           
*******************************************************************************
Initial IAU76/J2000 heliocentric ecliptic osculating elements (au, days, deg.):
  EPOCH=  2458429.5 ! 2018-Nov-07.00 (TDB)         Residual RMS= .34243        
   EC= .3094465550301519   QR= .9449639043218054   TP= 2458464.0659233886      
   OM= 45.67874041641947   W=  38.97310343924259   IN= 3.356915226222919       
  Equivalent ICRF heliocentric cartesian coordinates (au, au/d):
   X= 7.224620352366717E-01  Y= 6.383229877646874E-01  Z= 2.747435985069854E-01
  VX=-1.546092850205216E-02 VY= 1.016746642579675E-02 VZ= 5.632057443641291E-03
Asteroid physical parameters (km, seconds, rotational period in hours):        
   GM= n.a.                RAD= n.a.               ROTPER= n.a.                
   H= 27.5                 G= .150                 B-V= n.a.                   
                           ALBEDO= n.a.            STYP= n.a.                  
*******************************************************************************
 Date__(UT)__HR:MN     R.A._________(ICRF)_________DEC
******************************************************
$$SOE
 2018-Sep-13 12:48     01 12 48.042997 -06 14 19.15130
 2018-Sep-13 12:49     01 12 48.057711 -06 14 19.35478
 2018-Sep-13 12:50     01 12 48.072433 -06 14 19.55820
 2018-Sep-13 12:51     01 12 48.087161 -06 14 19.76155
 2018-Sep-13 12:52     01 12 48.101896 -06 14 19.96485
 2018-Sep-13 12:53     01 12 48.116639 -06 14 20.16808
 2018-Sep-13 12:54     01 12 48.131390 -06 14 20.37126
 2018-Sep-13 12:55     01 12 48.146148 -06 14 20.57437
 2018-Sep-13 12:56     01 12 48.160914 -06 14 20.77742
 2018-Sep-13 12:57     01 12 48.175689 -06 14 20.98041
 2018-Sep-13 12:58     01 12 48.190471 -06 14 21.18333
 2018-Sep-13 12:59     01 12 48.205262 -06 14 21.38620
 2018-Sep-13 13:00     01 12 48.220062 -06 14 21.58900
 2018-Sep-13 13:01     01 12 48.234871 -06 14 21.79174
 2018-Sep-13 13:02     01 12 48.249689 -06 14 21.99443
 2018-Sep-13 13:03     01 12 48.264516 -06 14 22.19705
 2018-Sep-13 13:04     01 12 48.279352 -06 14 22.39961
 2018-Sep-13 13:05     01 12 48.294198 -06 14 22.60211
 2018-Sep-13 13:06     01 12 48.309054 -06 14 22.80454
 2018-Sep-13 13:07     01 12 48.323920 -06 14 23.00692
 2018-Sep-13 13:08     01 12 48.338796 -06 14 23.20924
 2018-Sep-13 13:09     01 12 48.353682 -06 14 23.41150
 2018-Sep-13 13:10     01 12 48.368579 -06 14 23.61369
 2018-Sep-13 13:11     01 12 48.383486 -06 14 23.81583
 2018-Sep-13 13:12     01 12 48.398404 -06 14 24.01790
 2018-Sep-13 13:13     01 12 48.413334 -06 14 24.21991
 2018-Sep-13 13:14     01 12 48.428274 -06 14 24.42187
 2018-Sep-13 13:15     01 12 48.443226 -06 14 24.62376
 2018-Sep-13 13:16     01 12 48.458189 -06 14 24.82560
 2018-Sep-13 13:17     01 12 48.473164 -06 14 25.02737
 2018-Sep-13 13:18     01 12 48.488151 -06 14 25.22908
 2018-Sep-13 13:19     01 12 48.503151 -06 14 25.43074
 2018-Sep-13 13:20     01 12 48.518162 -06 14 25.63233
 2018-Sep-13 13:21     01 12 48.533186 -06 14 25.83387
 2018-Sep-13 13:22     01 12 48.548223 -06 14 26.03534
 2018-Sep-13 13:23     01 12 48.563272 -06 14 26.23676
 2018-Sep-13 13:24     01 12 48.578334 -06 14 26.43812
 2018-Sep-13 13:25     01 12 48.593410 -06 14 26.63941
 2018-Sep-13 13:26     01 12 48.608499 -06 14 26.84065
 2018-Sep-13 13:27     01 12 48.623601 -06 14 27.04183
 2018-Sep-13 13:28     01 12 48.638717 -06 14 27.24295
 2018-Sep-13 13:29     01 12 48.653847 -06 14 27.44401
 2018-Sep-13 13:30     01 12 48.668991 -06 14 27.64501
 2018-Sep-13 13:31     01 12 48.684149 -06 14 27.84595
 2018-Sep-13 13:32     01 12 48.699322 -06 14 28.04684
 2018-Sep-13 13:33     01 12 48.714509 -06 14 28.24767
 2018-Sep-13 13:34     01 12 48.729710 -06 14 28.44843
 2018-Sep-13 13:35     01 12 48.744927 -06 14 28.64914
 2018-Sep-13 13:36     01 12 48.760159 -06 14 28.84979
 2018-Sep-13 13:37     01 12 48.775406 -06 14 29.05039
 2018-Sep-13 13:38     01 12 48.790669 -06 14 29.25092
 2018-Sep-13 13:39     01 12 48.805947 -06 14 29.45140
 2018-Sep-13 13:40     01 12 48.821241 -06 14 29.65182
 2018-Sep-13 13:41     01 12 48.836550 -06 14 29.85218
 2018-Sep-13 13:42     01 12 48.851876 -06 14 30.05249
 2018-Sep-13 13:43     01 12 48.867219 -06 14 30.25273
 2018-Sep-13 13:44     01 12 48.882577 -06 14 30.45292
 2018-Sep-13 13:45     01 12 48.897952 -06 14 30.65305
 2018-Sep-13 13:46     01 12 48.913345 -06 14 30.85313
 2018-Sep-13 13:47     01 12 48.928754 -06 14 31.05315
 2018-Sep-13 13:48     01 12 48.944180 -06 14 31.25311
 2018-Sep-13 13:49     01 12 48.959623 -06 14 31.45301
 2018-Sep-13 13:50     01 12 48.975084 -06 14 31.65286
 2018-Sep-13 13:51     01 12 48.990563 -06 14 31.85265
 2018-Sep-13 13:52     01 12 49.006059 -06 14 32.05239
 2018-Sep-13 13:53     01 12 49.021574 -06 14 32.25207
 2018-Sep-13 13:54     01 12 49.037106 -06 14 32.45169
 2018-Sep-13 13:55     01 12 49.052657 -06 14 32.65126
 2018-Sep-13 13:56     01 12 49.068226 -06 14 32.85077
 2018-Sep-13 13:57     01 12 49.083814 -06 14 33.05023
 2018-Sep-13 13:58     01 12 49.099421 -06 14 33.24963
 2018-Sep-13 13:59     01 12 49.115047 -06 14 33.44897
 2018-Sep-13 14:00     01 12 49.130692 -06 14 33.64826
 2018-Sep-13 14:01     01 12 49.146356 -06 14 33.84749
 2018-Sep-13 14:02     01 12 49.162040 -06 14 34.04667
 2018-Sep-13 14:03     01 12 49.177743 -06 14 34.24580
 2018-Sep-13 14:04     01 12 49.193466 -06 14 34.44487
 2018-Sep-13 14:05     01 12 49.209209 -06 14 34.64388
 2018-Sep-13 14:06     01 12 49.224972 -06 14 34.84284
 2018-Sep-13 14:07     01 12 49.240756 -06 14 35.04175
 2018-Sep-13 14:08     01 12 49.256560 -06 14 35.24060
 2018-Sep-13 14:09     01 12 49.272384 -06 14 35.43940
 2018-Sep-13 14:10     01 12 49.288229 -06 14 35.63814
 2018-Sep-13 14:11     01 12 49.304096 -06 14 35.83683
 2018-Sep-13 14:12     01 12 49.319983 -06 14 36.03547
 2018-Sep-13 14:13     01 12 49.335892 -06 14 36.23405
 2018-Sep-13 14:14     01 12 49.351822 -06 14 36.43258
 2018-Sep-13 14:15     01 12 49.367773 -06 14 36.63106
 2018-Sep-13 14:16     01 12 49.383746 -06 14 36.82948
 2018-Sep-13 14:17     01 12 49.399741 -06 14 37.02785
 2018-Sep-13 14:18     01 12 49.415759 -06 14 37.22617
 2018-Sep-13 14:19     01 12 49.431798 -06 14 37.42444
 2018-Sep-13 14:20     01 12 49.447860 -06 14 37.62265
 2018-Sep-13 14:21     01 12 49.463944 -06 14 37.82081
 2018-Sep-13 14:22     01 12 49.480051 -06 14 38.01892
 2018-Sep-13 14:23     01 12 49.496181 -06 14 38.21698
 2018-Sep-13 14:24     01 12 49.512333 -06 14 38.41498
 2018-Sep-13 14:25     01 12 49.528509 -06 14 38.61294
 2018-Sep-13 14:26     01 12 49.544709 -06 14 38.81084
 2018-Sep-13 14:27     01 12 49.560931 -06 14 39.00869
 2018-Sep-13 14:28     01 12 49.577177 -06 14 39.20649
 2018-Sep-13 14:29     01 12 49.593447 -06 14 39.40424
 2018-Sep-13 14:30     01 12 49.609741 -06 14 39.60194
 2018-Sep-13 14:31     01 12 49.626059 -06 14 39.79959
 2018-Sep-13 14:32     01 12 49.642401 -06 14 39.99718
 2018-Sep-13 14:33     01 12 49.658768 -06 14 40.19473
 2018-Sep-13 14:34     01 12 49.675159 -06 14 40.39223
 2018-Sep-13 14:35     01 12 49.691574 -06 14 40.58968
 2018-Sep-13 14:36     01 12 49.708015 -06 14 40.78707
 2018-Sep-13 14:37     01 12 49.724480 -06 14 40.98442
 2018-Sep-13 14:38     01 12 49.740971 -06 14 41.18172
 2018-Sep-13 14:39     01 12 49.757487 -06 14 41.37897
 2018-Sep-13 14:40     01 12 49.774028 -06 14 41.57617
 2018-Sep-13 14:41     01 12 49.790594 -06 14 41.77332
 2018-Sep-13 14:42     01 12 49.807187 -06 14 41.97042
 2018-Sep-13 14:43     01 12 49.823805 -06 14 42.16748
 2018-Sep-13 14:44     01 12 49.840449 -06 14 42.36449
 2018-Sep-13 14:45     01 12 49.857120 -06 14 42.56144
 2018-Sep-13 14:46     01 12 49.873816 -06 14 42.75835
 2018-Sep-13 14:47     01 12 49.890540 -06 14 42.95522
 2018-Sep-13 14:48     01 12 49.907289 -06 14 43.15203
 2018-Sep-13 14:49     01 12 49.924066 -06 14 43.34880
 2018-Sep-13 14:50     01 12 49.940869 -06 14 43.54552
